[{"CCSDS_OMM_VERS":"2.0","COMMENT":"GENERATED VIA SPACE-TRACK.ORG API","CREATION_DATE":"2021-03-01T03:37:00","ORIGINATOR":"18 SPCS","OBJECT_NAME":"STARLINK-1098","OBJECT_ID":"2020-001D","CENTER_NAME":"EARTH","REF_FRAME":"TEME","TIME_SYSTEM":"UTC","MEAN_ELEMENT_THEORY":"SGP4","EPOCH":"2021-02-28T16:43:35.958144","MEAN_MOTION":"15.06389016","ECCENTRICITY":"0.00022230","INCLINATION":"53.0559","RA_OF_ASC_NODE":"304.1892","ARG_OF_PERICENTER":"80.9644","MEAN_ANOMALY":"279.1597","EPHEMERIS_TYPE":"0","CLASSIFICATION_TYPE":"U","NORAD_CAT_ID":"44917","ELEMENT_SET_NO":"999","REV_AT_EPOCH":"6327","BSTAR":"-0.00002307800000","MEAN_MOTION_DOT":"-0.00000625","MEAN_MOTION_DDOT":"0.0000000000000","SEMIMAJOR_AXIS":"6925.382","PERIOD":"95.593","APOAPSIS":"548.787","PERIAPSIS":"545.708","OBJECT_TYPE":"PAYLOAD","RCS_SIZE":"LARGE","COUNTRY_CODE":"US","LAUNCH_DATE":"2020-01-07","SITE":"AFETR","DECAY_DATE":null,"FILE":"2973176","GP_ID":"172617819","TLE_LINE0":"0 STARLINK-1098","TLE_LINE1":"1 44917U 20001D   21059.69694396 -.00000625  00000-0 -23078-4 0  9996","TLE_LINE2":"2 44917  53.0559 304.1892 0002223  80.9644 279.1597 15.06389016 63278"},{"CCSDS_OMM_VERS":"2.0","COMMENT":"GENERATED VIA SPACE-TRACK.ORG API","CREATION_DATE":"2021-03-01T06:46:12","ORIGINATOR":"18 SPCS","OBJECT_NAME":"STARLINK-1098","OBJECT_ID":"2020-001D","CENTER_NAME":"EARTH","REF_FRAME":"TEME","TIME_SYSTEM":"UTC","MEAN_ELEMENT_THEORY":"SGP4","EPOCH":"2021-02-28T21:30:13.105728","MEAN_MOTION":"15.06391260","ECCENTRICITY":"0.00022510","INCLINATION":"53.0558","RA_OF_ASC_NODE":"303.2955","ARG_OF_PERICENTER":"81.5519","MEAN_ANOMALY":"278.5725","EPHEMERIS_TYPE":"0","CLASSIFICATION_TYPE":"U","NORAD_CAT_ID":"44917","ELEMENT_SET_NO":"999","REV_AT_EPOCH":"6330","BSTAR":"-0.00006081300000","MEAN_MOTION_DOT":"-0.00001187","MEAN_MOTION_DDOT":"0.0000000000000","SEMIMAJOR_AXIS":"6925.375","PERIOD":"95.593","APOAPSIS":"548.799","PERIAPSIS":"545.681","OBJECT_TYPE":"PAYLOAD","RCS_SIZE":"LARGE","COUNTRY_CODE":"US","LAUNCH_DATE":"2020-01-07","SITE":"AFETR","DECAY_DATE":null,"FILE":"2973342","GP_ID":"172624763","TLE_LINE0":"0 STARLINK-1098","TLE_LINE1":"1 44917U 20001D   21059.89598502 -.00001187  00000-0 -60813-4 0  9992","TLE_LINE2":"2 44917  53.0558 303.2955 0002251  81.5519 278.5725 15.06391260 63300"},{"CCSDS_OMM_VERS":"2.0","COMMENT":"GENERATED VIA SPACE-TRACK.ORG API","CREATION_DATE":"2021-03-01T17:30:06","ORIGINATOR":"18 SPCS","OBJECT_NAME":"STARLINK-1098","OBJECT_ID":"2020-001D","CENTER_NAME":"EARTH","REF_FRAME":"TEME","TIME_SYSTEM":"UTC","MEAN_ELEMENT_THEORY":"SGP4","EPOCH":"2021-02-28T23:05:45.467520","MEAN_MOTION":"15.06392041","ECCENTRICITY":"0.00022500","INCLINATION":"53.0558","RA_OF_ASC_NODE":"302.9977","ARG_OF_PERICENTER":"81.4261","MEAN_ANOMALY":"278.6983","EPHEMERIS_TYPE":"0","CLASSIFICATION_TYPE":"U","NORAD_CAT_ID":"44917","ELEMENT_SET_NO":"999","REV_AT_EPOCH":"6331","BSTAR":"-0.00006388000000","MEAN_MOTION_DOT":"-0.00001233","MEAN_MOTION_DDOT":"0.0000000000000","SEMIMAJOR_AXIS":"6925.373","PERIOD":"95.593","APOAPSIS":"548.796","PERIAPSIS":"545.680","OBJECT_TYPE":"PAYLOAD","RCS_SIZE":"LARGE","COUNTRY_CODE":"US","LAUNCH_DATE":"2020-01-07","SITE":"AFETR","DECAY_DATE":null,"FILE":"2973602","GP_ID":"172648429","TLE_LINE0":"0 STARLINK-1098","TLE_LINE1":"1 44917U 20001D   21059.96233180 -.00001233  00000-0 -63880-4 0  9997","TLE_LINE2":"2 44917  53.0558 302.9977 0002250  81.4261 278.6983 15.06392041 63318"},{"CCSDS_OMM_VERS":"2.0","COMMENT":"GENERATED VIA SPACE-TRACK.ORG API","CREATION_DATE":"2021-03-02T03:57:44","ORIGINATOR":"18 SPCS","OBJECT_NAME":"STARLINK-1098","OBJECT_ID":"2020-001D","CENTER_NAME":"EARTH","REF_FRAME":"TEME","TIME_SYSTEM":"UTC","MEAN_ELEMENT_THEORY":"SGP4","EPOCH":"2021-03-01T16:36:41.953536","MEAN_MOTION":"15.06386541","ECCENTRICITY":"0.00022400","INCLINATION":"53.0556","RA_OF_ASC_NODE":"299.7214","ARG_OF_PERICENTER":"81.7547","MEAN_ANOMALY":"278.3696","EPHEMERIS_TYPE":"0","CLASSIFICATION_TYPE":"U","NORAD_CAT_ID":"44917","ELEMENT_SET_NO":"999","REV_AT_EPOCH":"6342","BSTAR":"0.00005723900000","MEAN_MOTION_DOT":"0.00000571","MEAN_MOTION_DDOT":"0.0000000000000","SEMIMAJOR_AXIS":"6925.390","PERIOD":"95.593","APOAPSIS":"548.806","PERIAPSIS":"545.704","OBJECT_TYPE":"PAYLOAD","RCS_SIZE":"LARGE","COUNTRY_CODE":"US","LAUNCH_DATE":"2020-01-07","SITE":"AFETR","DECAY_DATE":null,"FILE":"2973830","GP_ID":"172675187","TLE_LINE0":"0 STARLINK-1098","TLE_LINE1":"1 44917U 20001D   21060.69215224  .00000571  00000-0  57239-4 0  9991","TLE_LINE2":"2 44917  53.0556 299.7214 0002240  81.7547 278.3696 15.06386541 63420"},{"CCSDS_OMM_VERS":"2.0","COMMENT":"GENERATED VIA SPACE-TRACK.ORG API","CREATION_DATE":"2021-03-02T20:15:47","ORIGINATOR":"18 SPCS","OBJECT_NAME":"STARLINK-1098","OBJECT_ID":"2020-001D","CENTER_NAME":"EARTH","REF_FRAME":"TEME","TIME_SYSTEM":"UTC","MEAN_ELEMENT_THEORY":"SGP4","EPOCH":"2021-03-01T22:58:51.558816","MEAN_MOTION":"15.06387015","ECCENTRICITY":"0.00022480","INCLINATION":"53.0556","RA_OF_ASC_NODE":"298.5300","ARG_OF_PERICENTER":"82.3587","MEAN_ANOMALY":"277.7658","EPHEMERIS_TYPE":"0","CLASSIFICATION_TYPE":"U","NORAD_CAT_ID":"44917","ELEMENT_SET_NO":"999","REV_AT_EPOCH":"6346","BSTAR":"0.00005739100000","MEAN_MOTION_DOT":"0.00000573","MEAN_MOTION_DDOT":"0.0000000000000","SEMIMAJOR_AXIS":"6925.388","PERIOD":"95.593","APOAPSIS":"548.810","PERIAPSIS":"545.697","OBJECT_TYPE":"PAYLOAD","RCS_SIZE":"LARGE","COUNTRY_CODE":"US","LAUNCH_DATE":"2020-01-07","SITE":"AFETR","DECAY_DATE":null,"FILE":"2974245","GP_ID":"172708501","TLE_LINE0":"0 STARLINK-1098","TLE_LINE1":"1 44917U 20001D   21060.95754119  .00000573  00000-0  57391-4 0  9992","TLE_LINE2":"2 44917  53.0556 298.5300 0002248  82.3587 277.7658 15.06387015 63464"},{"CCSDS_OMM_VERS":"2.0","COMMENT":"GENERATED VIA SPACE-TRACK.ORG API","CREATION_DATE":"2021-03-02T15:16:12","ORIGINATOR":"18 SPCS","OBJECT_NAME":"STARLINK-1098","OBJECT_ID":"2020-001D","CENTER_NAME":"EARTH","REF_FRAME":"TEME","TIME_SYSTEM":"UTC","MEAN_ELEMENT_THEORY":"SGP4","EPOCH":"2021-03-02T08:32:05.761536","MEAN_MOTION":"15.06390009","ECCENTRICITY":"0.00022570","INCLINATION":"53.0556","RA_OF_ASC_NODE":"296.7429","ARG_OF_PERICENTER":"82.6486","MEAN_ANOMALY":"277.4759","EPHEMERIS_TYPE":"0","CLASSIFICATION_TYPE":"U","NORAD_CAT_ID":"44917","ELEMENT_SET_NO":"999","REV_AT_EPOCH":"6352","BSTAR":"0.00007753800000","MEAN_MOTION_DOT":"0.00000873","MEAN_MOTION_DDOT":"0.0000000000000","SEMIMAJOR_AXIS":"6925.379","PERIOD":"95.593","APOAPSIS":"548.807","PERIAPSIS":"545.681","OBJECT_TYPE":"PAYLOAD","RCS_SIZE":"LARGE","COUNTRY_CODE":"US","LAUNCH_DATE":"2020-01-07","SITE":"AFETR","DECAY_DATE":null,"FILE":"2974055","GP_ID":"172683801","TLE_LINE0":"0 STARLINK-1098","TLE_LINE1":"1 44917U 20001D   21061.35562224  .00000873  00000-0  77538-4 0  9999","TLE_LINE2":"2 44917  53.0556 296.7429 0002257  82.6486 277.4759 15.06390009 63520"},{"CCSDS_OMM_VERS":"2.0","COMMENT":"GENERATED VIA SPACE-TRACK.ORG API","CREATION_DATE":"2021-03-03T03:24:48","ORIGINATOR":"18 SPCS","OBJECT_NAME":"STARLINK-1098","OBJECT_ID":"2020-001D","CENTER_NAME":"EARTH","REF_FRAME":"TEME","TIME_SYSTEM":"UTC","MEAN_ELEMENT_THEORY":"SGP4","EPOCH":"2021-03-02T18:05:20.063616","MEAN_MOTION":"15.06391872","ECCENTRICITY":"0.00022800","INCLINATION":"53.0563","RA_OF_ASC_NODE":"294.9576","ARG_OF_PERICENTER":"86.4609","MEAN_ANOMALY":"273.6641","EPHEMERIS_TYPE":"0","CLASSIFICATION_TYPE":"U","NORAD_CAT_ID":"44917","ELEMENT_SET_NO":"999","REV_AT_EPOCH":"6358","BSTAR":"0.00006908500000","MEAN_MOTION_DOT":"0.00000747","MEAN_MOTION_DDOT":"0.0000000000000","SEMIMAJOR_AXIS":"6925.373","PERIOD":"95.593","APOAPSIS":"548.817","PERIAPSIS":"545.659","OBJECT_TYPE":"PAYLOAD","RCS_SIZE":"LARGE","COUNTRY_CODE":"US","LAUNCH_DATE":"2020-01-07","SITE":"AFETR","DECAY_DATE":null,"FILE":"2974426","GP_ID":"172731648","TLE_LINE0":"0 STARLINK-1098","TLE_LINE1":"1 44917U 20001D   21061.75370444  .00000747  00000-0  69085-4 0  9992","TLE_LINE2":"2 44917  53.0563 294.9576 0002280  86.4609 273.6641 15.06391872 63589"},{"CCSDS_OMM_VERS":"2.0","COMMENT":"GENERATED VIA SPACE-TRACK.ORG API","CREATION_DATE":"2021-03-03T20:44:47","ORIGINATOR":"18 SPCS","OBJECT_NAME":"STARLINK-1098","OBJECT_ID":"2020-001D","CENTER_NAME":"EARTH","REF_FRAME":"TEME","TIME_SYSTEM":"UTC","MEAN_ELEMENT_THEORY":"SGP4","EPOCH":"2021-03-03T08:25:11.417376","MEAN_MOTION":"15.06394450","ECCENTRICITY":"0.00023540","INCLINATION":"53.0573","RA_OF_ASC_NODE":"292.2756","ARG_OF_PERICENTER":"84.0552","MEAN_ANOMALY":"276.0705","EPHEMERIS_TYPE":"0","CLASSIFICATION_TYPE":"U","NORAD_CAT_ID":"44917","ELEMENT_SET_NO":"999","REV_AT_EPOCH":"6367","BSTAR":"0.00008005400000","MEAN_MOTION_DOT":"0.00000911","MEAN_MOTION_DDOT":"0.0000000000000","SEMIMAJOR_AXIS":"6925.366","PERIOD":"95.592","APOAPSIS":"548.861","PERIAPSIS":"545.600","OBJECT_TYPE":"PAYLOAD","RCS_SIZE":"LARGE","COUNTRY_CODE":"US","LAUNCH_DATE":"2020-01-07","SITE":"AFETR","DECAY_DATE":null,"FILE":"2974892","GP_ID":"172763291","TLE_LINE0":"0 STARLINK-1098","TLE_LINE1":"1 44917U 20001D   21062.35082659  .00000911  00000-0  80054-4 0  9999","TLE_LINE2":"2 44917  53.0573 292.2756 0002354  84.0552 276.0705 15.06394450 63677"}]